{"type":"Feature","properties":{"name":"Варна","osm":"relation/1404291","wikidata":"Q748965","source":"OpenStreetMap contributors, ODbL 1.0","fetched":"2026-09-15","simplified_tolerance_m":100.0,"vertices_before":2131,"vertices_after":167},"geometry":{"type":"Polygon","coordinates":[[[27.736489,43.15019],[27.739835,43.150769],[27.741789,43.147737],[27.745469,43.146456],[27.750612,43.147248],[27.755701,43.151174],[27.760377,43.151097],[27.760869,43.149828],[27.778146,43.144399],[27.782689,43.133694],[27.787641,43.131925],[27.791493,43.126009],[27.795969,43.128217],[27.808061,43.130583],[27.813229,43.130131],[27.819219,43.139667],[27.82484,43.14119],[27.835385,43.139742],[27.848857,43.140057],[27.849892,43.135128],[27.851966,43.135784],[27.861863,43.131933],[27.864502,43.127624],[27.863147,43.126106],[27.877329,43.112775],[27.874526,43.111015],[27.89143,43.101353],[27.899795,43.100252],[27.905942,43.103781],[27.909284,43.102059],[27.9138,43.102912],[27.915951,43.105616],[27.923773,43.106323],[27.92522,43.112824],[27.927988,43.114752],[27.930462,43.127093],[27.936621,43.13042],[27.939961,43.135505],[27.940843,43.148352],[27.943315,43.151694],[27.946667,43.167942],[27.945874,43.171758],[27.941357,43.170138],[27.928645,43.174772],[27.921965,43.173423],[27.921372,43.196077],[27.924223,43.201803],[27.928442,43.205744],[27.93259,43.205854],[27.933093,43.203972],[27.933345,43.205971],[27.937983,43.208803],[27.939893,43.208875],[27.940347,43.206969],[27.942829,43.210837],[27.948665,43.211109],[27.948317,43.209245],[27.953345,43.211686],[27.958211,43.211284],[27.967595,43.21771],[27.977659,43.219663],[27.980319,43.218337],[27.979944,43.216927],[27.981327,43.219321],[27.985294,43.219585],[27.989181,43.217533],[27.986957,43.216411],[27.992279,43.216037],[27.993314,43.217737],[27.996919,43.215508],[27.998148,43.216105],[27.996841,43.217902],[28.001735,43.221184],[28.005155,43.22056],[28.003536,43.218256],[28.007089,43.221548],[28.010799,43.222226],[28.008619,43.222508],[28.009079,43.224488],[28.011516,43.224102],[28.013987,43.226448],[28.013785,43.224364],[28.018485,43.242266],[28.022329,43.245433],[28.024616,43.245325],[28.023166,43.243917],[28.025803,43.244305],[28.024938,43.245481],[28.028985,43.24882],[28.030208,43.247486],[28.030938,43.249156],[28.029395,43.248948],[28.028989,43.250767],[28.032013,43.258151],[28.041154,43.273529],[28.044094,43.274958],[28.043387,43.277603],[28.049119,43.298246],[28.052456,43.302875],[28.053697,43.299986],[28.052995,43.303697],[28.056213,43.309509],[28.052415,43.309813],[28.047589,43.301216],[28.045846,43.304173],[28.03466,43.296969],[28.028091,43.297508],[28.027246,43.294944],[28.022589,43.294174],[28.019808,43.290855],[28.016894,43.292929],[28.012122,43.281664],[28.010015,43.282828],[28.009999,43.276082],[28.00297,43.268643],[28.004192,43.26666],[28.002633,43.264159],[27.998749,43.262972],[27.9918,43.257366],[27.97291,43.26448],[27.966471,43.261029],[27.959646,43.252392],[27.952451,43.246935],[27.945995,43.245397],[27.939137,43.244961],[27.917322,43.262018],[27.918784,43.268703],[27.916216,43.268392],[27.915718,43.26596],[27.911855,43.266443],[27.907539,43.270985],[27.905015,43.276709],[27.906909,43.280196],[27.906185,43.284637],[27.908706,43.287801],[27.908639,43.29531],[27.895662,43.294249],[27.891743,43.276783],[27.884192,43.283781],[27.878882,43.274389],[27.879504,43.270726],[27.871373,43.268405],[27.869976,43.266304],[27.832971,43.275947],[27.836826,43.271325],[27.829908,43.258463],[27.830969,43.256041],[27.833766,43.256176],[27.833173,43.242886],[27.83636,43.240306],[27.834964,43.228703],[27.805481,43.229867],[27.800357,43.226956],[27.79463,43.227001],[27.791118,43.220776],[27.79085,43.215791],[27.785899,43.21581],[27.788569,43.204258],[27.792924,43.205237],[27.79436,43.202107],[27.793997,43.189822],[27.764043,43.189149],[27.74257,43.191731],[27.739374,43.186868],[27.747686,43.180208],[27.743455,43.173876],[27.736489,43.15019]]]}}